[{"OBJECT_NAME":"STARLINK-35996","OBJECT_ID":"2025-278K","EPOCH":"2026-03-09T10:22:44.358240","MEAN_MOTION":15.27581683,"ECCENTRICITY":0.00010291,"INCLINATION":42.9976,"RA_OF_ASC_NODE":115.4772,"ARG_OF_PERICENTER":262.9812,"MEAN_ANOMALY":97.0923,"EPHEMERIS_TYPE":0,"CLASSIFICATION_TYPE":"U","NORAD_CAT_ID":66800,"ELEMENT_SET_NO":999,"REV_AT_EPOCH":1517,"BSTAR":0.0011010582,"MEAN_MOTION_DOT":0.00030162,"MEAN_MOTION_DDOT":0},{"OBJECT_NAME":"ELECTRON KICK STAGE R\/B","OBJECT_ID":"2024-047B","EPOCH":"2026-03-09T21:11:54.433824","MEAN_MOTION":15.27307897,"ECCENTRICITY":0.00092426,"INCLINATION":97.6338,"RA_OF_ASC_NODE":46.9382,"ARG_OF_PERICENTER":20.6031,"MEAN_ANOMALY":339.5579,"EPHEMERIS_TYPE":0,"CLASSIFICATION_TYPE":"U","NORAD_CAT_ID":59225,"ELEMENT_SET_NO":999,"REV_AT_EPOCH":10999,"BSTAR":0.00091229405,"MEAN_MOTION_DOT":0.00024409,"MEAN_MOTION_DDOT":0}]
